$$SOE
2459580.500000000, A.D. 2022-Jan-01 00:00:00.0000, 2.694597243300341E+08, -3.825903563277544E+08, -7.745862440661460E+06,
2459587.500000000, A.D. 2022-Jan-08 00:00:00.0000, 2.765416436961690E+08, -3.753214290365152E+08, -8.113343695740938E+06,
2459594.500000000, A.D. 2022-Jan-15 00:00:00.0000, 2.834912923905684E+08, -3.678727085252231E+08, -8.476941606094941E+06,
2459601.500000000, A.D. 2022-Jan-22 00:00:00.0000, 2.903038019911148E+08, -3.602457522055083E+08, -8.836436070962861E+06,
2459608.500000000, A.D. 2022-Jan-29 00:00:00.0000, 2.969742653076832E+08, -3.524422455880947E+08, -9.191603981669903E+06,
2459615.500000000, A.D. 2022-Feb-05 00:00:00.0000, 3.034977367207702E+08, -3.444640075020561E+08, -9.542219138225988E+06,
2459622.500000000, A.D. 2022-Feb-12 00:00:00.0000, 3.098692349554750E+08, -3.363129964426956E+08, -9.888052461580068E+06,
2459629.500000000, A.D. 2022-Feb-19 00:00:00.0000, 3.160837469803801E+08, -3.279913156691579E+08, -1.022887218719378E+07,
2459636.500000000, A.D. 2022-Feb-26 00:00:00.0000, 3.221362317341585E+08, -3.195012177641587E+08, -1.056444397957797E+07,
2459643.500000000, A.D. 2022-Mar-05 00:00:00.0000, 3.280216238530778E+08, -3.108451092605323E+08, -1.089453103375641E+07,
2459650.500000000, A.D. 2022-Mar-12 00:00:00.0000, 3.337348376350599E+08, -3.020255553865298E+08, -1.121889419037046E+07,
2459657.500000000, A.D. 2022-Mar-19 00:00:00.0000, 3.392707713250464E+08, -2.930452848865584E+08, -1.153729206967403E+07,
2459664.500000000, A.D. 2022-Mar-26 00:00:00.0000, 3.446243117572704E+08, -2.839071949064313E+08, -1.184948122798969E+07,
2459671.500000000, A.D. 2022-Apr-02 00:00:00.0000, 3.497903394346668E+08, -2.746143559800428E+08, -1.215521634845313E+07,
2459678.500000000, A.D. 2022-Apr-09 00:00:00.0000, 3.547637343295770E+08, -2.651700170912575E+08, -1.245425049161424E+07,
2459685.500000000, A.D. 2022-Apr-16 00:00:00.0000, 3.595393827757425E+08, -2.555776101339839E+08, -1.274633538607506E+07,
2459692.500000000, A.D. 2022-Apr-23 00:00:00.0000, 3.641121841958248E+08, -2.458407526632433E+08, -1.303122155490050E+07,
2459699.500000000, A.D. 2022-Apr-30 00:00:00.0000, 3.684770558048959E+08, -2.359632511585595E+08, -1.330865829050274E+07,
2459706.500000000, A.D. 2022-May-07 00:00:00.0000, 3.726289383602690E+08, -2.259491067455450E+08, -1.357839392101331E+07,
2459713.500000000, A.D. 2022-May-14 00:00:00.0000, 3.765628043543735E+08, -2.158025203073474E+08, -1.384017624797577E+07,
2459720.500000000, A.D. 2022-May-21 00:00:00.0000, 3.802736666260166E+08, -2.055278961966227E+08, -1.409375290757284E+07,
2459727.500000000, A.D. 2022-May-28 00:00:00.0000, 3.837565869145457E+08, -1.951298454746324E+08, -1.433887169026628E+07,
2459734.500000000, A.D. 2022-Jun-04 00:00:00.0000, 3.870066846339734E+08, -1.846131889552323E+08, -1.457528087020617E+07,
2459741.500000000, A.D. 2022-Jun-11 00:00:00.0000, 3.900191460093099E+08, -1.739829600132772E+08, -1.480272955778434E+07,
2459748.500000000, A.D. 2022-Jun-18 00:00:00.0000, 3.927892336102757E+08, -1.632444071033584E+08, -1.502096807797811E+07,
2459755.500000000, A.D. 2022-Jun-25 00:00:00.0000, 3.953122963075201E+08, -1.524029959803978E+08, -1.522974837997258E+07,
2459762.500000000, A.D. 2022-Jul-02 00:00:00.0000, 3.975837797786095E+08, -1.414644116464003E+08, -1.542882449570598E+07,
2459769.500000000, A.D. 2022-Jul-09 00:00:00.0000, 3.995992379429948E+08, -1.304345598042817E+08, -1.561795306848042E+07,
2459776.500000000, A.D. 2022-Jul-16 00:00:00.0000, 4.013543452566220E+08, -1.193195666925204E+08, -1.579689385757867E+07,
2459783.500000000, A.D. 2022-Jul-23 00:00:00.0000, 4.028449076514810E+08, -1.081257771805703E+08, -1.596541001015230E+07,
2459790.500000000, A.D. 2022-Jul-30 00:00:00.0000, 4.040668721812022E+08, -9.685975443766049E+07, -1.612326838146305E+07,
2459797.500000000, A.D. 2022-Aug-06 00:00:00.0000, 4.050163389408665E+08, -8.552828048296127E+07, -1.627024017972598E+07,
2459804.500000000, A.D. 2022-Aug-13 00:00:00.0000, 4.056895744044671E+08, -7.413835481779367E+07, -1.640610163371231E+07,
2459811.500000000, A.D. 2022-Aug-20 00:00:00.0000, 4.060830245745114E+08, -6.269719160037360E+07, -1.653063457884701E+07,
2459818.500000000, A.D. 2022-Aug-27 00:00:00.0000, 4.061933279709163E+08, -5.121221604893277E+07, -1.664362702580784E+07,
2459825.500000000, A.D. 2022-Sep-03 00:00:00.0000, 4.060173286608416E+08, -3.969106014523618E+07, -1.674487374159382E+07,
2459832.500000000, A.D. 2022-Sep-10 00:00:00.0000, 4.055520893680296E+08, -2.814155757871817E+07, -1.683417684734508E+07,
2459839.500000000, A.D. 2022-Sep-17 00:00:00.0000, 4.047949046343244E+08, -1.657173790028430E+07, -1.691134643350805E+07,
2459846.500000000, A.D. 2022-Sep-24 00:00:00.0000, 4.037433140319593E+08, -4.989819907767988E+06, -1.697620119960409E+07,
2459853.500000000, A.D. 2022-Oct-01 00:00:00.0000, 4.023951155991614E+08, 6.595795739032149E+06, -1.702856913987544E+07,
2459860.500000000, A.D. 2022-Oct-08 00:00:00.0000, 4.007483798324734E+08, 1.817653521623309E+07, -1.706828826676257E+07,
2459867.500000000, A.D. 2022-Oct-15 00:00:00.0000, 3.988014632271808E+08, 2.974366276383493E+07, -1.709520718563731E+07,
2459874.500000000, A.D. 2022-Oct-22 00:00:00.0000, 3.965530191102113E+08, 4.128829277108704E+07, -1.710918545520446E+07,
2459881.500000000, A.D. 2022-Oct-29 00:00:00.0000, 3.940020081853530E+08, 5.280140012590393E+07, -1.711009417188185E+07,
2459888.500000000, A.D. 2022-Nov-05 00:00:00.0000, 3.911477108044482E+08, 6.427383156301372E+07, -1.709781674366143E+07,
2459895.500000000, A.D. 2022-Nov-12 00:00:00.0000, 3.879897389130296E+08, 7.569631926549047E+07, -1.707224956618921E+07,
2459902.500000000, A.D. 2022-Nov-19 00:00:00.0000, 3.845280468643906E+08, 8.705949574423817E+07, -1.703330260940676E+07,
2459909.500000000, A.D. 2022-Nov-26 00:00:00.0000, 3.807629412766361E+08, 9.835390956787348E+07, -1.698089996748660E+07,
2459916.500000000, A.D. 2022-Dec-03 00:00:00.0000, 3.766950900107700E+08, 1.095700418926938E+08, -1.691498038429476E+07,
2459923.500000000, A.D. 2022-Dec-10 00:00:00.0000, 3.723255302284162E+08, 1.206983237641249E+08, -1.683549775298893E+07,
2459930.500000000, A.D. 2022-Dec-17 00:00:00.0000, 3.676556754694213E+08, 1.317291541088473E+08, -1.674242158999203E+07,
2459937.500000000, A.D. 2022-Dec-24 00:00:00.0000, 3.626873217782439E+08, 1.426529182873521E+08, -1.663573749475886E+07,
2459944.500000000, A.D. 2022-Dec-31 00:00:00.0000, 3.574226531611944E+08, 1.534600072405739E+08, -1.651544761558197E+07,
2459951.500000000, A.D. 2023-Jan-07 00:00:00.0000, 3.518642464246779E+08, 1.641408381093113E+08, -1.638157105038970E+07,
2459958.500000000, A.D. 2023-Jan-14 00:00:00.0000, 3.460150733592790E+08, 1.746858767347934E+08, -1.623414395752812E+07,
2459965.500000000, A.D. 2023-Jan-21 00:00:00.0000, 3.398784995718451E+08, 1.850856587754156E+08, -1.607321957314692E+07,
2459972.500000000, A.D. 2023-Jan-28 00:00:00.0000, 3.334582835909952E+08, 1.953308091396663E+08, -1.589886848513062E+07,
2459979.500000000, A.D. 2023-Feb-04 00:00:00.0000, 3.267585759981692E+08, 2.054120626506632E+08, -1.571117889451613E+07,
2459986.500000000, A.D. 2023-Feb-11 00:00:00.0000, 3.197839167598822E+08, 2.153202856329864E+08, -1.551025671313711E+07,
2459993.500000000, A.D. 2023-Feb-18 00:00:00.0000, 3.125392306802600E+08, 2.250464974781096E+08, -1.529622555701493E+07,
2460000.500000000, A.D. 2023-Feb-25 00:00:00.0000, 3.050298212283552E+08, 2.345818919027231E+08, -1.506922667120273E+07,
2460007.500000000, A.D. 2023-Mar-04 00:00:00.0000, 2.972613628441710E+08, 2.439178577951460E+08, -1.482941879259048E+07,
2460014.500000000, A.D. 2023-Mar-11 00:00:00.0000, 2.892398917667572E+08, 2.530459995300028E+08, -1.457697795235863E+07,
2460021.500000000, A.D. 2023-Mar-18 00:00:00.0000, 2.809717954618705E+08, 2.619581565850916E+08, -1.431209722621994E+07,
2460028.500000000, A.D. 2023-Mar-25 00:00:00.0000, 2.724638008987366E+08, 2.706464222992182E+08, -1.403498645553032E+07,
2460035.500000000, A.D. 2023-Apr-01 00:00:00.0000, 2.637229621604452E+08, 2.791031620517957E+08, -1.374587194748612E+07,
2460042.500000000, A.D. 2023-Apr-08 00:00:00.0000, 2.547566468413913E+08, 2.873210319764426E+08, -1.344499599981701E+07,
2460049.500000000, A.D. 2023-Apr-15 00:00:00.0000, 2.455725189670995E+08, 2.952929969956831E+08, -1.313261612762962E+07,
2460056.500000000, A.D. 2023-Apr-22 00:00:00.0000, 2.361785203312389E+08, 3.030123450338209E+08, -1.280900441005705E+07,
2460063.500000000, A.D. 2023-Apr-29 00:00:00.0000, 2.265828530843535E+08, 3.104726995755103E+08, -1.247444702723205E+07,
2460070.500000000, A.D. 2023-May-06 00:00:00.0000, 2.167939619160259E+08, 3.176680322712317E+08, -1.212924368427670E+07,
2460077.500000000, A.D. 2023-May-13 00:00:00.0000, 2.068205149612463E+08, 3.245926746293924E+08, -1.177370690958810E+07,
2460084.500000000, A.D. 2023-May-20 00:00:00.0000, 1.966713837798128E+08, 3.312413282497940E+08, -1.140816129344299E+07,
2460091.500000000, A.D. 2023-May-27 00:00:00.0000, 1.863556227216883E+08, 3.376090735264845E+08, -1.103294269191204E+07,
2460098.500000000, A.D. 2023-Jun-03 00:00:00.0000, 1.758824478581980E+08, 3.436913768152764E+08, -1.064839740436007E+07,
2460105.500000000, A.D. 2023-Jun-10 00:00:00.0000, 1.652612156265036E+08, 3.494840960335432E+08, -1.025488133313572E+07,
2460112.500000000, A.D. 2023-Jun-17 00:00:00.0000, 1.545014013999687E+08, 3.549834846258081E+08, -9.852759143919289E+06,
2460119.500000000, A.D. 2023-Jun-24 00:00:00.0000, 1.436125784267199E+08, 3.601861939569521E+08, -9.442403456977084E+06,
2460126.500000000, A.D. 2023-Jul-01 00:00:00.0000, 1.326043975104669E+08, 3.650892749798504E+08, -9.024194030485228E+06,
2460133.500000000, A.D. 2023-Jul-08 00:00:00.0000, 1.214865658779366E+08, 3.696901800260503E+08, -8.598516720829338E+06,
2460140.500000000, A.D. 2023-Jul-15 00:00:00.0000, 1.102688240647036E+08, 3.739867619229200E+08, -8.165762338659301E+06,
2460147.500000000, A.D. 2023-Jul-22 00:00:00.0000, 9.896092444288979E+07, 3.779772694544489E+08, -7.726325812818572E+06,
$$EOE